NORAD_CAT_ID,OBJECT_NAME,OBJECT_TYPE,EPOCH,MEAN_MOTION,ECCENTRICITY,INCLINATION,RA_OF_ASC_NODE,ARG_OF_PERICENTER,MEAN_ANOMALY,BSTAR,MEAN_MOTION_DOT,MEAN_MOTION_DDOT,TLE_LINE0,TLE_LINE1,TLE_LINE2,SEMIMAJOR_AXIS,PERIOD,APOGEE,PERIGEE,DECAYED
53140.0,STARLINK-4170,PAYLOAD,2023-01-11 13:21:16,15.08862589,0.0002102,53.2161,310.7405,47.4823,312.6347,0.00085381,0.00013335,0.0,0 STARLINK-4170,1 53140U 22083J   23011.55644272  .00013335  00000-0  85381-3 0  9993,2 53140  53.2161 310.7405 0002102  47.4823 312.6347 15.08862589 27137,6917.811,95.436,541.13,538.222,0.0
53140.0,STARLINK-4170,PAYLOAD,2023-01-11 19:42:49,15.08852456,0.0002332,53.2149,309.5552,39.1129,321.0031,0.00034091,5.143e-05,0.0,0 STARLINK-4170,1 53140U 22083J   23011.82140198  .00005143  00000-0  34091-3 0  9991,2 53140  53.2149 309.5552 0002332  39.1129 321.0031 15.08852456 27174,6917.842,95.437,541.321,538.094,0.0
53140.0,STARLINK-4170,PAYLOAD,2023-01-12 13:12:04,15.0883259,0.000194,53.2161,306.28,49.0424,311.0736,-0.0001142,-2.105e-05,0.0,0 STARLINK-4170,1 53140U 22083J   23012.55004807 -.00002105  00000-0 -11420-3 0  9996,2 53140  53.2161 306.2800 0001940  49.0424 311.0736 15.08832590 27910,6917.903,95.438,541.11,538.4259999999998,0.0
53140.0,STARLINK-4170,PAYLOAD,2023-01-13 01:55:09,15.08821737,0.0001877,53.2146,303.9017,48.5526,311.5627,-0.00028951,-4.89e-05,0.0,0 STARLINK-4170,1 53140U 22083J   23013.07997491 -.00004890  00000-0 -28951-3 0  9994,2 53140  53.2146 303.9017 0001877  48.5526 311.5627 15.08821737 27996,6917.936,95.439,541.1,538.503,0.0
53140.0,STARLINK-4170,PAYLOAD,2023-01-14 03:21:20,15.08866217,0.0001751,53.2151,299.1443,51.3262,308.7887,0.0017555,0.00027782,0.0,0 STARLINK-4170,1 53140U 22083J   23014.13981881  .00027782  00000-0  17555-2 0  9998,2 53140  53.2151 299.1443 0001751  51.3262 308.7887 15.08866217 28158,6917.8,95.436,540.877,538.4540000000001,0.0
53140.0,STARLINK-4170,PAYLOAD,2023-01-14 11:18:17,15.08855436,0.0004394,53.2152,297.6563,60.8792,299.2639,0.00088496,0.00013831,0.0,0 STARLINK-4170,1 53140U 22083J   23014.47103116  .00013831  00000-0  88496-3 0  9995,2 53140  53.2152 297.6563 0004394  60.8792 299.2639 15.08855436 28200,6917.8330000000005,95.437,542.738,536.659,0.0
53140.0,STARLINK-4170,PAYLOAD,2023-01-15 11:09:03,15.08848266,0.0002182,53.2159,293.1944,68.8641,291.2584,0.00077849,0.00012126,0.0,0 STARLINK-4170,1 53140U 22083J   23015.46461940  .00012126  00000-0  77849-3 0  9993,2 53140  53.2159 293.1944 0002182  68.8641 291.2584 15.08848266 28355,6917.855,95.437,541.23,538.211,0.0
53140.0,STARLINK-4170,PAYLOAD,2023-01-15 22:16:44,15.08856376,0.0001159,53.2144,291.1156,85.6786,274.4339,0.00063732,9.874e-05,0.0,0 STARLINK-4170,1 53140U 22083J   23015.92829375  .00009874  00000-0  63732-3 0  9996,2 53140  53.2144 291.1156 0001159  85.6786 274.4339 15.08856376 27791,6917.83,95.437,540.497,538.894,0.0
53140.0,STARLINK-4170,PAYLOAD,2023-01-16 01:27:30,15.08870107,0.0001115,53.215,290.5221,93.7143,266.3977,0.0021156999999999,0.00033572,0.0,0 STARLINK-4170,1 53140U 22083J   23016.06077145  .00033572  00000-0  21157-2 0  9998,2 53140  53.2150 290.5221 0001115  93.7143 266.3977 15.08870107 28442,6917.7880000000005,95.436,540.425,538.882,0.0
53140.0,STARLINK-4170,PAYLOAD,2023-01-16 03:02:53,15.08889278,0.0001099,53.215,290.2224,86.2244,273.8873,0.0033485999999999,0.00053482,0.0,0 STARLINK-4170,1 53140U 22083J   23016.12700878  .00053482  00000-0  33486-2 0  9991,2 53140  53.2150 290.2224 0001099  86.2244 273.8873 15.08889278 28450,6917.73,95.434,540.355,538.835,0.0
53140.0,STARLINK-4170,PAYLOAD,2023-01-16 20:32:09,15.08846346,0.0001593,53.2146,286.9518,98.864,261.2533,0.0022889,0.00036334,0.0,0 STARLINK-4170,1 53140U 22083J   23016.85566285  .00036334  00000-0  22889-2 0  9995,2 53140  53.2146 286.9518 0001593  98.8640 261.2533 15.08846346 27936,6917.861,95.437,540.828,538.624,0.0
53140.0,STARLINK-4170,PAYLOAD,2023-01-17 02:53:42,15.08813943,0.0001308,53.2139,285.7622,51.7664,308.3445,0.0022026,0.00034915,0.0,0 STARLINK-4170,1 53140U 22083J   23017.12063077  .00034915  00000-0  22026-2 0  9993,2 53140  53.2139 285.7622 0001308  51.7664 308.3445 15.08813943 28606,6917.96,95.439,540.73,538.92,0.0
53140.0,STARLINK-4170,PAYLOAD,2023-01-17 10:50:38,15.08823318,0.000118,53.2138,284.2748,55.4415,304.6688,0.0012865,0.00020237,0.0,0 STARLINK-4170,1 53140U 22083J   23017.45183522  .00020237  00000-0  12865-2 0  9999,2 53140  53.2138 284.2748 0001180  55.4415 304.6688 15.08823318 28651,6917.931,95.439,540.613,538.98,0.0
53140.0,STARLINK-4170,PAYLOAD,2023-01-18 02:44:29,15.088638199999998,0.0001242,53.2137,281.301,57.6601,302.4511,0.0018865,0.00029883,0.0,0 STARLINK-4170,1 53140U 22083J   23018.11423283  .00029883  00000-0  18865-2 0  9996,2 53140  53.2137 281.3010 0001242  57.6601 302.4511 15.08863820 28754,6917.808000000001,95.436,540.5319999999999,538.813,0.0
53140.0,STARLINK-4170,PAYLOAD,2023-01-18 10:41:25,15.08861361,9.84e-05,53.2147,279.814,60.7504,299.3587,0.00087919,0.0001374,0.0,0 STARLINK-4170,1 53140U 22083J   23018.44542976  .00013740  00000-0  87919-3 0  9995,2 53140  53.2147 279.8140 0000984  60.7504 299.3587 15.08861361 28801,6917.815,95.436,540.361,538.999,0.0
53140.0,STARLINK-4170,PAYLOAD,2023-01-18 21:49:06,15.08866368,0.0001715,53.2142,277.732,75.7301,284.3881,0.0012432,0.00019567,0.0,0 STARLINK-4170,1 53140U 22083J   23018.90910713  .00019567  00000-0  12432-2 0  9994,2 53140  53.2142 277.7320 0001715  75.7301 284.3881 15.08866368 28248,6917.8,95.436,540.851,538.4780000000001,0.0
53140.0,STARLINK-4170,PAYLOAD,2023-01-19 02:35:15,15.08878382,0.0001349,53.2141,276.8393,72.5534,287.5606,0.0011175,0.0001756,0.0,0 STARLINK-4170,1 53140U 22083J   23019.10782103  .00017560  00000-0  11175-2 0  9991,2 53140  53.2141 276.8393 0001349  72.5534 287.5606 15.08878382 28275,6917.763000000001,95.435,540.561,538.695,0.0
53140.0,STARLINK-4170,PAYLOAD,2023-01-20 04:01:28,15.087792000000002,0.0001205,53.2145,272.0839,93.2114,266.9016,0.0010878,0.00017038,0.0,0 STARLINK-4170,1 53140U 22083J   23020.16768766  .00017038  00000-0  10878-2 0  9997,2 53140  53.2145 272.0839 0001205  93.2114 266.9016 15.08779200 29060,6918.066,95.441,540.765,539.0980000000001,0.0
53140.0,STARLINK-4170,PAYLOAD,2023-01-20 16:44:33,15.08826599,0.0001273,53.2143,269.7015,116.0294,244.0829,0.0017785999999999,0.00028121,0.0,0 STARLINK-4170,1 53140U 22083J   23020.69761262  .00028121  00000-0  17786-2 0  9999,2 53140  53.2143 269.7015 0001273 116.0294 244.0829 15.08826599 29147,6917.920999999999,95.438,540.6669999999999,538.906,0.0
53140.0,STARLINK-4170,PAYLOAD,2023-01-21 02:16:52,15.08870652,0.0001183,53.2145,267.9192,104.8393,255.273,0.0026804,0.00042665,0.0,0 STARLINK-4170,1 53140U 22083J   23021.09505087  .00042665  00000-0  26804-2 0  9995,2 53140  53.2145 267.9192 0001183 104.8393 255.2730 15.08870652 29201,6917.786999999999,95.436,540.47,538.8330000000001,0.0
53140.0,STARLINK-4170,PAYLOAD,2023-01-21 16:35:20,15.08888484,0.0001296999999999,53.2149,265.243,105.2672,254.8464,0.0025119,0.00039969,0.0,0 STARLINK-4170,1 53140U 22083J   23021.69120379  .00039969  00000-0  25119-2 0  9999,2 53140  53.2149 265.2430 0001297 105.2672 254.8464 15.08888484 29292,6917.732,95.434,540.494,538.7,0.0
53140.0,STARLINK-4170,PAYLOAD,2023-01-21 21:21:28,15.08880699,0.000118,53.2142,264.3503,103.6919,256.4205,0.0013675999999999,0.00021569,0.0,0 STARLINK-4170,1 53140U 22083J   23021.88991873  .00021569  00000-0  13676-2 0  9997,2 53140  53.2142 264.3503 0001180 103.6919 256.4205 15.08880699 29328,6917.755999999999,95.435,540.437,538.805,0.0
53140.0,STARLINK-4170,PAYLOAD,2023-01-22 08:29:10,15.08874231,0.0001571,53.2139,262.2706,63.1669,296.9484,0.0006751,0.00010483,0.0,0 STARLINK-4170,1 53140U 22083J   23022.35359301  .00010483  00000-0  67510-3 0  9994,2 53140  53.2139 262.2706 0001571  63.1669 296.9484 15.08874231 29392,6917.776,95.435,540.7280000000001,538.554,0.0
53140.0,STARLINK-4170,PAYLOAD,2023-01-22 16:26:06,15.08858424,0.0002516,53.2148,260.7846,101.6541,258.4733,-0.00024094,-4.123e-05,0.0,0 STARLINK-4170,1 53140U 22083J   23022.68479234 -.00004123  00000-0 -24094-3 0  9994,2 53140  53.2148 260.7846 0002516 101.6541 258.4733 15.08858424 29449,6917.8240000000005,95.436,541.43,537.9490000000001,0.0
53140.0,STARLINK-4170,PAYLOAD,2023-01-23 01:58:24,15.08845012,0.0001305,53.2141,258.9981,89.4849,270.6292,0.00029945,4.482e-05,0.0,0 STARLINK-4170,1 53140U 22083J   23023.08223305  .00004482  00000-0  29945-3 0  9991,2 53140  53.2141 258.9981 0001305  89.4849 270.6292 15.08845012 29502,6917.865,95.437,540.633,538.827,0.0
53140.0,STARLINK-4170,PAYLOAD,2023-01-23 08:19:57,15.08838413,0.0001179,53.2132,257.8081,77.178,282.9344,0.00049405,7.583e-05,0.0,0 STARLINK-4170,1 53140U 22083J   23023.34719570  .00007583  00000-0  49405-3 0  9992,2 53140  53.2132 257.8081 0001179  77.1780 282.9344 15.08838413 29543,6917.885,95.438,540.566,538.935,0.0
53140.0,STARLINK-4170,PAYLOAD,2023-01-24 19:18:26,15.08842054,0.0001367,53.2148,251.2648,87.0689,273.0459,0.00013659,1.887e-05,0.0,0 STARLINK-4170,1 53140U 22083J   23024.80447465  .00001887  00000-0  13659-3 0  9998,2 53140  53.2148 251.2648 0001367  87.0689 273.0459 15.08842054 29762,6917.874,95.437,540.685,538.793,0.0
53140.0,STARLINK-4170,PAYLOAD,2023-01-25 08:01:31,15.08841421,0.0001088,53.213,248.8859,83.9613,276.1503,7.3632e-05,8.84e-06,0.0,0 STARLINK-4170,1 53140U 22083J   23025.33439374  .00000884  00000-0  73632-4 0  9991,2 53140  53.2130 248.8859 0001088  83.9613 276.1503 15.08841421 29212,6917.876,95.437,540.494,538.988,0.0
53140.0,STARLINK-4170,PAYLOAD,2023-01-25 19:09:13,15.08837303,0.0001175,53.2137,246.8029,85.8428,274.2698,6.1068e-05,6.84e-06,0.0,0 STARLINK-4170,1 53140U 22083J   23025.79807795  .00000684  00000-0  61068-4 0  9995,2 53140  53.2137 246.8029 0001175  85.8428 274.2698 15.08837303 29913,6917.889,95.438,540.566,538.941,0.0
